[{"OBJECT_NAME":"LYNK TOWER 6","OBJECT_ID":"2024-043AB","EPOCH":"2026-03-09T21:28:38.303328","MEAN_MOTION":15.29548678,"ECCENTRICITY":0.00097492,"INCLINATION":97.5426,"RA_OF_ASC_NODE":204.1954,"ARG_OF_PERICENTER":232.0253,"MEAN_ANOMALY":128.0107,"EPHEMERIS_TYPE":0,"CLASSIFICATION_TYPE":"U","NORAD_CAT_ID":59123,"ELEMENT_SET_NO":999,"REV_AT_EPOCH":11184,"BSTAR":0.00040142146,"MEAN_MOTION_DOT":0.0001144,"MEAN_MOTION_DDOT":0},{"OBJECT_NAME":"STARLINK-35791","OBJECT_ID":"2025-283U","EPOCH":"2026-03-09T06:29:04.179264","MEAN_MOTION":15.30196711,"ECCENTRICITY":0.00011872,"INCLINATION":53.1626,"RA_OF_ASC_NODE":25.8507,"ARG_OF_PERICENTER":53.7672,"MEAN_ANOMALY":306.3438,"EPHEMERIS_TYPE":0,"CLASSIFICATION_TYPE":"U","NORAD_CAT_ID":66896,"ELEMENT_SET_NO":999,"REV_AT_EPOCH":1578,"BSTAR":0.0009036964,"MEAN_MOTION_DOT":0.00026498,"MEAN_MOTION_DDOT":0}]
